#cP2017 10 26  0  0  0.00000000      96 ORBIT IGS14 HLM  IGS
## 1972 345600.00000000   900.00000000 58052 0.0000000000000
+   32   G01G02G03G04G05G06G07G08G09G10G11G12G13G14G15G16G17
+        G18G19G20G21G22G23G24G25G26G27G28G29G30G31G32  0  0
+          0  0  0  0  0  0  0  0  0  0  0  0  0  0  0  0  0
+          0  0  0  0  0  0  0  0  0  0  0  0  0  0  0  0  0
+          0  0  0  0  0  0  0  0  0  0  0  0  0  0  0  0  0
++         2  2  2  0  2  2  2  2  2  2  2  2  2  2  2  2  2
++         2  2  2  2  2  2  2  2  2  2  2  2  2  2  2  0  0
++         0  0  0  0  0  0  0  0  0  0  0  0  0  0  0  0  0
++         0  0  0  0  0  0  0  0  0  0  0  0  0  0  0  0  0
++         0  0  0  0  0  0  0  0  0  0  0  0  0  0  0  0  0
%c G  cc GPS ccc cccc cccc cccc cccc ccccc ccccc ccccc ccccc
%c cc cc ccc ccc cccc cccc cccc cccc ccccc ccccc ccccc ccccc
%f  1.2500000  1.025000000  0.00000000000  0.000000000000000
%f  0.0000000  0.000000000  0.00000000000  0.000000000000000
%i    0    0    0    0      0      0      0      0         0
%i    0    0    0    0      0      0      0      0         0
/* RAPID ORBIT COMBINATION FROM WEIGHTED AVERAGE OF:        
/* cod emr esa gfz jpl ngs sio usn whu                      
/* REFERENCED TO IGS TIME (IGST) AND TO WEIGHTED MEAN POLE: 
/* PCV:IGS14_1972 OL/AL:FES2004  NONE     Y  ORB:CMB CLK:CMB
*  2017 10 26  8 15  0.00000000
PG01  13795.874335 -22271.907633   3204.965162     -6.423339  3  6  4 102       
PG02 -17059.367780   4442.063383 -19252.147753    297.000090  7  2  4  96       
PG03  14386.473204 -13364.225895 -17882.068486    -50.982071  4  7  5 119       
PG04  20466.972245   9380.632528  14329.638012 999999.999999
PG05 -26468.227441   2978.652945   1323.510252    -24.787708  6  8  8  84       
PG06 -11947.106444  -9505.015699 -21716.714385    406.625731  6  5  3  89       
PG07   3563.020428 -23649.889522  11260.890656    288.187228  6  8  2 114       
PG08  13167.738549  -7417.451095  21897.219930    -78.333517  4  4  7 121       
PG09  -5140.447862 -23059.730623 -12158.198563    463.129992  5  5  6 103       
PG10  16538.047665  11287.585706  17541.379637     97.199474  6  4  4 103       
PG11  10209.181590 -21495.781439  11345.009206   -723.260209  4  6  4 107       
PG12 -18186.199529  10640.419284 -16214.599161    367.553065  5  5  6 107       
PG13 -16363.262453   -816.906207  20786.261412    -93.222106  5  7  3  93       
PG14  17739.079410  16483.751877 -10821.327564    -87.112850  5  7  4  78       
PG15 -11724.435265  10636.729989  21122.661863   -356.853245  2  5  3 112       
PG16  26692.781558   -716.290510   1950.106217     36.757858  5  6  6 103       
PG17 -14680.819731 -22096.808225  -2100.536096   -148.615290  7  6  5 108       
PG18   5330.956278  15624.272404  21416.097689    631.880878  6  7  5 102       
PG19 -17269.950165 -16985.351828 -10910.899590   -479.166296  6  6  3 114       
PG20 -17717.312565  13625.466265  14176.529301    490.859833  5  7  5 122       
PG21    704.323590  23074.411705  13858.160583   -467.872366  8  9  4 118       
PG22  21060.660967 -11098.480233 -11574.190584   -167.594946  5  5  4 120       
PG23   4382.217088 -17825.087772 -18785.554430   -218.347238  6  6  3  95       
PG24 -14588.801793  21112.908066   6193.954744    -41.390699  5  5  3 118       
PG25  -5140.907094  14865.309262 -21522.777357   -478.966682  5  4    111       
PG26  24882.363947   4155.216391  -8465.241264   -384.389412  2  2  6  83       
PG27  18458.033613   5338.914506  18374.620732    341.241184  3  3  6 106       
PG28 -12073.617718 -13535.272110  20034.573185    657.192416  7  9  2  98       
PG29    142.672653  21352.004996 -15812.418892    546.392561  9  8  6  90       
PG30  -4681.052651 -18499.131833  18423.315822    132.289931  4  5  3 115       
PG31  13650.690177   6466.793218 -21791.984057    166.359607  7  7  2 102       
PG32  17155.448610  19772.066901  -4654.756803   -517.283377  7  9  6  45       
*  2017 10 26  8 30  0.00000000
PG01  13790.442902 -21670.283803   6027.216623     -6.425453  3  5  5 110       
PG02 -16293.693825   2186.800142 -20277.234178    296.991507  6  2  4 104       
PG03  16336.395523 -13377.656269 -16103.038000    -50.977472  4  7  5 125       
PG04  21320.021928  10651.469331  12095.443726 999999.999999
PG05 -26499.515188   2701.694612  -1492.502722    -24.786887  7  8  8 113       
PG06 -10885.161064 -11720.162382 -21185.650934    406.627669  7  5  3 104       
PG07   4284.746832 -24554.965915   8702.029210    288.182614  6  8  2 117       
PG08  14599.592022  -5400.345232  21586.122448    -78.334438  4  3  7 121       
PG09  -4075.082246 -21958.066336 -14400.930361    463.134618  5  5  6 103       
PG10  14472.989051  11613.928834  19076.221377     97.207054  6  4  4 115       
PG11  10511.626900 -19973.853629  13521.215632   -723.262299  3  5  4 106       
PG12 -19898.649640  10556.652342 -14080.677222    367.551393  5  5  6 113       
PG13 -17402.841346  -2914.568146  19730.702202    -93.222092  5  7  2 104       
PG14  18124.947159  17561.567836  -8263.330951    -87.113478  5  7  3  88       
PG15 -13304.770745   8742.700619  21090.419777   -356.853853  2  6  3 111       
PG16  26766.135848   -572.376249   -935.179189     36.757800  6  6  6 111       
PG17 -14586.309075 -22293.470923    785.700084   -148.613125  8  7  5 101       
PG18   3005.902120  15970.399249  21601.767603    631.881136  5  6  6 101       
PG19 -17631.441449 -18007.586334  -8296.537747   -479.164651  6  6  3 115       
PG20 -19270.620229  13642.211608  11985.986991    490.860266  5  7  4 119       
PG21    -28.555363  24233.570582  11571.848992   -467.869109  8  9  5 112       
PG22  22316.017561 -10958.447761  -9154.723472   -167.606447  5  5  4 125       
PG23   5841.355293 -16060.997660 -19966.173310   -218.347399  6  6  3 131       
PG24 -14531.312021  20183.063688   8849.564635    -41.390155  5  5  4 124       
PG25  -7520.648844  15006.112986 -20684.012145   -478.972355  5  4    104       
PG26  23800.316211   4500.884670 -11006.278585   -384.377944  2  3  6 101       
PG27  19524.931772   7038.163435  16642.316418    341.244877  3  3  6 119       
PG28  -9847.827846 -13610.991466  21205.550622    657.194941  7  8  2  99       
PG29   -971.471209  19794.674867 -17697.123295    546.387745  9  7  6 100       
PG30  -3574.596220 -20201.667206  16798.214457    132.287677  4  5  3 115       
PG31  12509.863032   8691.265055 -21667.428566    166.357260  8  8  1  90       
PG32  17165.033260  20225.290389  -1840.126316   -517.286990  7  9  6  98       
*  2017 10 26  8 45  0.00000000
PG01  13700.309361 -20774.655968   8743.635526     -6.427531  2  5  5 104       
PG02 -15607.187163   -194.179719 -20934.864112    296.983047  6  3  4  99       
PG03  18068.648036 -13460.003569 -14046.718629    -50.972925  3  7  5 110       
PG04  22055.575079  11683.605730   9656.903106 999999.999999
PG05 -26233.861186   2375.008716  -4283.175760    -24.785957  8  8  8 102       
PG06  -9971.941193 -13913.304088 -20289.459379    406.629597  7  6  4 120       
PG07   4846.566584 -25219.236158   5990.714751    288.177979  6  7  2 112       
PG08  16101.265874  -3506.789751  20905.815945    -78.335088  5  3  7 116       
PG09  -2803.796885 -20726.656981 -16396.200825    463.139231  6  5  6  97       
PG10  12273.855060  12071.582266  20284.746187     97.214592  6  3  4 115       
PG11  10887.699818 -18228.476910  15458.037203   -723.264271  4  4  4 109       
PG12 -21360.246116  10545.109839 -11704.562261    367.549869  3  5  7 121       
PG13 -18478.477712  -4835.026241  18332.149731    -93.222277  6  7  2  86       
PG14  18400.178577  18368.731749  -5563.014400    -87.114617  5  8  1 164       
PG15 -14952.217538   6945.453617  20689.676002   -356.854075  4  6  3 110       
PG16  26525.167057   -410.287437  -3804.787024     36.757541  7  7  6 107       
PG17 -14314.520940 -22229.934978   3658.590997   -148.611745  8  7  6 103       
PG18    697.538326  16428.743772  21434.810593    631.881695  2  6  6  96       
PG19 -17880.380102 -18755.868377  -5538.965940   -479.162934  6  6  4 117       
PG20 -20568.938228  13667.820608   9587.251599    490.861577  4  6  4 122       
PG21   -622.634397  25180.151223   9092.896072   -467.866067  8  9  5 117       
PG22  23298.085663 -10822.334920  -6576.483988   -167.618315  6  6  4 119       
PG23   7454.619431 -14282.344191 -20792.227834   -218.347651  6  5  3 131       
PG24 -14421.808367  18974.825464  11350.037625    -41.389589  5  5  3 120       
PG25  -9778.344304  15259.988464 -19492.435485   -478.978070  5  5  2 112       
PG26  22464.711823   4947.646969 -13358.851399   -384.366464  3  3  6  98       
PG27  20549.428758   8509.569546  14624.988049    341.248543  3  2  6 114       
PG28  -7522.697839 -13822.465217  22031.214031    657.197794  7  8  2 112       
PG29  -2284.093506  18141.325226 -19277.624247    546.383371  8  6  6  92       
PG30  -2636.965425 -21775.620886  14882.580546    132.285434  5  6  3 121       
PG31  11499.767932  10943.479072 -21166.924969    166.354740  8  8     83       
PG32  16996.838916  20428.623607   1006.067904   -517.290589  7  8  6  93       
EOF
